{
  "type": "FeatureCollection",
  "features": [
    {
      "type": "Feature",
      "properties": {
        "norad_id": 37017,
        "name": "FENGYUN 1C DEB",
        "group": "fengyun-1c-debris",
        "lat": -18.730111650390402,
        "lon": -54.450610788722265,
        "alt_km": 561.9400477066283,
        "timestamp": "2025-12-23T16:57:12.641897+00:00",
        "meta_object_name": "FENGYUN 1C DEB",
        "meta_object_id": "1999-025ECZ",
        "meta_epoch": "2025-12-20T02:22:22.724832",
        "meta_mean_motion": 14.40809486,
        "meta_eccentricity": 0.02814738,
        "meta_inclination": 98.7945,
        "meta_ra_of_asc_node": 298.8266,
        "meta_arg_of_pericenter": 343.5705,
        "meta_mean_anomaly": 15.6497,
        "meta_ephemeris_type": 0,
        "meta_classification_type": "U",
        "meta_norad_cat_id": 37017,
        "meta_element_set_no": 999,
        "meta_rev_at_epoch": 61267,
        "meta_bstar": 0.00129315,
        "meta_mean_motion_dot": 6.585e-05,
        "meta_mean_motion_ddot": 0,
        "tle_line1": "1 37017U 99025ECZ 25354.09887413  .00006585  00000+0  12932-2 0  9994",
        "tle_line2": "2 37017  98.7945 298.8266 0281473 343.5705  15.6497 14.40809486612673"
      },
      "geometry": {
        "type": "Point",
        "coordinates": [
          -54.450610788722265,
          -18.730111650390402
        ]
      }
    },
    {
      "type": "Feature",
      "properties": {
        "norad_id": 37021,
        "name": "FENGYUN 1C DEB",
        "group": "fengyun-1c-debris",
        "lat": 70.90098196558861,
        "lon": -140.7677166158492,
        "alt_km": 822.2231922011288,
        "timestamp": "2025-12-23T16:57:12.641907+00:00",
        "meta_object_name": "FENGYUN 1C DEB",
        "meta_object_id": "1999-025EDD",
        "meta_epoch": "2025-12-22T06:58:32.171232",
        "meta_mean_motion": 14.32310959,
        "meta_eccentricity": 0.01760624,
        "meta_inclination": 98.3842,
        "meta_ra_of_asc_node": 12.6537,
        "meta_arg_of_pericenter": 223.2786,
        "meta_mean_anomaly": 149.9387,
        "meta_ephemeris_type": 0,
        "meta_classification_type": "U",
        "meta_norad_cat_id": 37021,
        "meta_element_set_no": 999,
        "meta_rev_at_epoch": 70191,
        "meta_bstar": 0.00065126431,
        "meta_mean_motion_dot": 2.04e-05,
        "meta_mean_motion_ddot": 0,
        "tle_line1": "1 37021U 99025EDD 25356.29065013  .00002040  00000+0  65126-3 0  9993",
        "tle_line2": "2 37021  98.3842  12.6537 0176062 223.2786 149.9387 14.32310959701911"
      },
      "geometry": {
        "type": "Point",
        "coordinates": [
          -140.7677166158492,
          70.90098196558861
        ]
      }
    },
    {
      "type": "Feature",
      "properties": {
        "norad_id": 37028,
        "name": "FENGYUN 1C DEB",
        "group": "fengyun-1c-debris",
        "lat": 73.99701753731124,
        "lon": 120.57812487880479,
        "alt_km": 788.778993727341,
        "timestamp": "2025-12-23T16:57:12.641917+00:00",
        "meta_object_name": "FENGYUN 1C DEB",
        "meta_object_id": "1999-025EDL",
        "meta_epoch": "2025-12-21T23:58:03.524160",
        "meta_mean_motion": 14.22799029,
        "meta_eccentricity": 0.00340615,
        "meta_inclination": 99.2467,
        "meta_ra_of_asc_node": 264.1753,
        "meta_arg_of_pericenter": 72.3984,
        "meta_mean_anomaly": 288.0908,
        "meta_ephemeris_type": 0,
        "meta_classification_type": "U",
        "meta_norad_cat_id": 37028,
        "meta_element_set_no": 999,
        "meta_rev_at_epoch": 60607,
        "meta_bstar": 0.00163129,
        "meta_mean_motion_dot": 3.635e-05,
        "meta_mean_motion_ddot": 0,
        "tle_line1": "1 37028U 99025EDL 25355.99865190  .00003635  00000+0  16313-2 0  9994",
        "tle_line2": "2 37028  99.2467 264.1753 0034061  72.3984 288.0908 14.22799029606073"
      },
      "geometry": {
        "type": "Point",
        "coordinates": [
          120.57812487880479,
          73.99701753731124
        ]
      }
    },
    {
      "type": "Feature",
      "properties": {
        "norad_id": 37036,
        "name": "FENGYUN 1C DEB",
        "group": "fengyun-1c-debris",
        "lat": -6.4241407126474686,
        "lon": 168.9925041095318,
        "alt_km": 970.5550412320417,
        "timestamp": "2025-12-23T16:57:12.641928+00:00",
        "meta_object_name": "FENGYUN 1C DEB",
        "meta_object_id": "1999-025EDU",
        "meta_epoch": "2025-12-23T05:48:29.509344",
        "meta_mean_motion": 14.03580297,
        "meta_eccentricity": 0.01241015,
        "meta_inclination": 98.7147,
        "meta_ra_of_asc_node": 349.5369,
        "meta_arg_of_pericenter": 25.9837,
        "meta_mean_anomaly": 334.749,
        "meta_ephemeris_type": 0,
        "meta_classification_type": "U",
        "meta_norad_cat_id": 37036,
        "meta_element_set_no": 999,
        "meta_rev_at_epoch": 63895,
        "meta_bstar": 0.00024663063,
        "meta_mean_motion_dot": 3.73e-06,
        "meta_mean_motion_ddot": 0,
        "tle_line1": "1 37036U 99025EDU 25357.24200821  .00000373  00000+0  24663-3 0  9991",
        "tle_line2": "2 37036  98.7147 349.5369 0124101  25.9837 334.7490 14.03580297638959"
      },
      "geometry": {
        "type": "Point",
        "coordinates": [
          168.9925041095318,
          -6.4241407126474686
        ]
      }
    },
    {
      "type": "Feature",
      "properties": {
        "norad_id": 37044,
        "name": "FENGYUN 1C DEB",
        "group": "fengyun-1c-debris",
        "lat": 57.91321535771293,
        "lon": -62.308886139506626,
        "alt_km": 622.9507874168003,
        "timestamp": "2025-12-23T16:57:12.641938+00:00",
        "meta_object_name": "FENGYUN 1C DEB",
        "meta_object_id": "1999-025EEC",
        "meta_epoch": "2025-12-23T02:22:09.343200",
        "meta_mean_motion": 13.70971014,
        "meta_eccentricity": 0.05075079,
        "meta_inclination": 98.9602,
        "meta_ra_of_asc_node": 102.5473,
        "meta_arg_of_pericenter": 134.0283,
        "meta_mean_anomaly": 230.3862,
        "meta_ephemeris_type": 0,
        "meta_classification_type": "U",
        "meta_norad_cat_id": 37044,
        "meta_element_set_no": 999,
        "meta_rev_at_epoch": 84000,
        "meta_bstar": 0.0033543853,
        "meta_mean_motion_dot": 7.503e-05,
        "meta_mean_motion_ddot": 0,
        "tle_line1": "1 37044U 99025EEC 25357.09871925  .00007503  00000+0  33544-2 0  9991",
        "tle_line2": "2 37044  98.9602 102.5473 0507507 134.0283 230.3862 13.70971014840000"
      },
      "geometry": {
        "type": "Point",
        "coordinates": [
          -62.308886139506626,
          57.91321535771293
        ]
      }
    },
    {
      "type": "Feature",
      "properties": {
        "norad_id": 37046,
        "name": "FENGYUN 1C DEB",
        "group": "fengyun-1c-debris",
        "lat": 51.661464039201434,
        "lon": -157.37432313019335,
        "alt_km": 833.5329390104353,
        "timestamp": "2025-12-23T16:57:12.641948+00:00",
        "meta_object_name": "FENGYUN 1C DEB",
        "meta_object_id": "1999-025EEE",
        "meta_epoch": "2025-12-22T06:38:49.300800",
        "meta_mean_motion": 14.24871368,
        "meta_eccentricity": 0.00487976,
        "meta_inclination": 98.5432,
        "meta_ra_of_asc_node": 10.2776,
        "meta_arg_of_pericenter": 278.8551,
        "meta_mean_anomaly": 80.7105,
        "meta_ephemeris_type": 0,
        "meta_classification_type": "U",
        "meta_norad_cat_id": 37046,
        "meta_element_set_no": 999,
        "meta_rev_at_epoch": 64317,
        "meta_bstar": 0.00063447229,
        "meta_mean_motion_dot": 1.457e-05,
        "meta_mean_motion_ddot": 0,
        "tle_line1": "1 37046U 99025EEE 25356.27695950  .00001457  00000+0  63447-3 0  9992",
        "tle_line2": "2 37046  98.5432  10.2776 0048797 278.8551  80.7105 14.24871368643173"
      },
      "geometry": {
        "type": "Point",
        "coordinates": [
          -157.37432313019335,
          51.661464039201434
        ]
      }
    },
    {
      "type": "Feature",
      "properties": {
        "norad_id": 37048,
        "name": "FENGYUN 1C DEB",
        "group": "fengyun-1c-debris",
        "lat": 40.01976182792969,
        "lon": 45.658844251065624,
        "alt_km": 835.7043807682321,
        "timestamp": "2025-12-23T16:57:12.641958+00:00",
        "meta_object_name": "FENGYUN 1C DEB",
        "meta_object_id": "1999-025EEG",
        "meta_epoch": "2025-12-20T11:28:01.182144",
        "meta_mean_motion": 13.65138161,
        "meta_eccentricity": 0.02535701,
        "meta_inclination": 98.8864,
        "meta_ra_of_asc_node": 215.1499,
        "meta_arg_of_pericenter": 129.0844,
        "meta_mean_anomaly": 350.7839,
        "meta_ephemeris_type": 0,
        "meta_classification_type": "U",
        "meta_norad_cat_id": 37048,
        "meta_element_set_no": 999,
        "meta_rev_at_epoch": 62275,
        "meta_bstar": 0.00018884192,
        "meta_mean_motion_dot": 1.54e-06,
        "meta_mean_motion_ddot": 0,
        "tle_line1": "1 37048U 99025EEG 25354.47779146  .00000154  00000+0  18884-3 0  9992",
        "tle_line2": "2 37048  98.8864 215.1499 0253570 129.0844 350.7839 13.65138161622750"
      },
      "geometry": {
        "type": "Point",
        "coordinates": [
          45.658844251065624,
          40.01976182792969
        ]
      }
    }
  ]
}